PROXIMA II              
1 43696U 18088G   22107.40488107  .00007167  00000+0  28157-3 0  9993
2 43696  85.0337 353.6959 0016928 348.1827  11.9017 15.25367973190653
FACSAT-1                
1 43721U 18096C   22107.48578883  .00018884  00000+0  58027-3 0  9997
2 43721  97.3535 187.4741 0013599 269.0943 147.1892 15.33659115188629
CENTAURI-2              
1 43722U 18096D   22107.45769989  .00021826  00000+0  61979-3 0  9994
2 43722  97.3577 189.1130 0013244 265.1202  94.8530 15.36122792188704
INNOSAT-2               
1 43738U 18096V   22107.53001265  .00046464  00000+0  10414-2 0  9998
2 43738  97.3670 195.3706 0016368 257.3296 228.4359 15.43143348189094
SIRION PATHFINDER-2     
1 43759U 18099B   22107.51610898  .00001897  00000+0  17344-3 0  9991
2 43759  97.6242 175.8740 0015391 105.3552 254.9371 14.96093150183935
CORVUS BC4              
1 43767U 18099K   22107.51269189  .00001854  00000+0  17230-3 0  9990
2 43767  97.6204 174.4661 0012947 110.3273 249.9341 14.95492641183869
MOVE-II                 
1 43780U 18099Y   22107.47466990  .00005022  00000+0  43880-3 0  9990
2 43780  97.6290 176.3921 0015008 114.3562 245.9229 14.97134948183939
SPACEBEE-7              
1 43816U 18099BL  22107.45964153  .00003559  00000+0  31255-3 0  9998
2 43816  97.6296 177.0966 0014494 100.8787 259.4067 14.97133800183520
SPACEBEE-5              
1 43817U 18099BM  22107.45028757  .00008105  00000+0  65762-3 0  9992
2 43817  97.6409 179.5687 0011685 102.9465 257.3064 14.99858585183620
SPACEBEE-6              
1 43818U 18099BN  22107.45331577  .00004744  00000+0  40657-3 0  9991
2 43818  97.6332 177.8397 0013813 100.2374 260.0407 14.97929956183700
SHIELDS 1               
1 43850U 18104B   22107.41357757  .00003918  00000+0  16433-3 0  9995
2 43850  85.0251  92.7044 0016497 124.7001 235.5799 15.23020001185212
STF-1                   
1 43852U 18104D   22107.41814600  .00009657  00000+0  38124-3 0  9999
2 43852  85.0281  93.1648 0015532 134.9480 225.3026 15.25264528185233
ZACUBE-2                
1 43907U 18111AH  22107.38640962  .00005187  00000+0  19944-3 0  9995
2 43907  97.1991 355.8708 0018714 299.7737 176.8634 15.26674368183973
LUME 1                  
1 43908U 18111AJ  22107.48092088  .00008731  00000+0  31061-3 0  9999
2 43908  97.1998 357.2343 0017105 293.7971  66.1476 15.29066704184078
AOBA VELOX-IV           
1 43940U 19003J   22107.55832062  .00023448  00000+0  71772-3 0  9993
2 43940  97.1349 145.3409 0018781  10.4347 349.7282 15.33650155180788
MOVE-IIB                
1 44398U 19038N   22107.57540984  .00013377  00000+0  67581-3 0  9993
2 44398  97.6231  76.4606 0021502 344.9999  15.0594 15.17003324153801
SONATE                  
1 44400U 19038Q   22107.59963677  .00005608  00000+0  31082-3 0  9992
2 44400  97.6326  75.8811 0023684 347.6990  12.3656 15.13972087153722
LUCKY-7                 
1 44406U 19038W   22107.43367854  .00005845  00000+0  31712-3 0  9999
2 44406  97.6338  76.1505 0022508 346.8318  13.2323 15.14737174153722
BEESAT 9                
1 44412U 19038AC  22107.41023812  .00008168  00000+0  42992-3 0  9990
2 44412  97.6311  76.3209 0020346 351.9138   8.1763 15.15720504153448
JAISAT-1                
1 44419U 19038F   22107.48111187  .00007991  00000+0  41528-3 0  9994
2 44419  97.6315  77.1815 0019172 349.5086  10.5743 15.16200651153814
DUCHIFAT-3              
1 44854U 19089C   22107.30003717  .00003627  00000+0  28795-3 0  9996
2 44854  36.9648 102.7552 0006803  80.7206 279.4304 15.00567774128748
EYESAT-NANO             
1 44877U 19092E   22107.49468612  .00009232  00000+0  41854-3 0  9993
2 44877  97.4639 292.3519 0011823 204.2188 155.8493 15.21001693129095
ORBITAL FACTORY 2 (OF-2)
1 45113U 19071C   22107.39290535  .00022046  00000+0  51327-3 0  9994
2 45113  51.6403 359.1009 0008424 312.1092  47.9177 15.42173594123943
M2 PATHFINDER           
1 45727U 20037E   22107.38705303  .00002572  00000+0  26014-3 0  9999
2 45727  97.7310 283.9834 0011534 235.4288 124.5870 14.91824604 97728
NETSAT-4                
1 46504U 20068U   22107.46912266  .00002345  00000+0  17868-3 0  9999
2 46504  97.7202  47.4163 0011836 162.2347 197.9290 15.02997251 84883
NETSAT-3                
1 46505U 20068V   22107.61593667  .00002981  00000+0  22599-3 0  9990
2 46505  97.7193  47.4928 0011419 167.4458 192.7056 15.02977773 84913
NETSAT-1                
1 46506U 20068W   22107.63034788  .00003404  00000+0  25779-3 0  9991
2 46506  97.7175  47.4430 0009696 180.0606 180.0620 15.02938574 84915
NETSAT-2                
1 46507U 20068X   22107.57210812  .00003425  00000+0  25966-3 0  9990
2 46507  97.7164  47.3777 0008844 190.3484 169.7573 15.02900831 84858
SPOC                    
1 46921U 98067RR  22107.40272364  .00119199  00000+0  76580-3 0  9990
2 46921  51.6337 246.4455 0004315 297.6801  62.3760 15.75342013 82325
NEUTRON-1               
1 46923U 98067RT  22107.56937336  .00113291  00000+0  73216-3 0  9996
2 46923  51.6343 246.0685 0004458 293.8612  66.1920 15.75228027 82374
DESCENT                 
1 46927U 98067RX  22107.41482761  .00133190  00000+0  81699-3 0  9995
2 46927  51.6343 246.5295 0004991 290.2475  69.7988 15.76344088 82268
SAI-1 NANOCONNECT-2     
1 47701U 21015C   22107.54088974  .00009877  00000+0  38912-3 0  9991
2 47701  97.4258 184.8269 0010260 311.4280  48.6076 15.25754684 62929
WARP-01                 
1 47924U 98067SA  22107.42474135  .00487537  10367-3  14137-2 0  9990
2 47924  51.6261 249.4809 0009606 302.3786  57.6291 15.92301963 62271
RSP-01                  
1 47925U 98067SB  22107.56614760  .00147412  00000+0  94499-3 0  9990
2 47925  51.6353 255.0531 0005057 298.9382  61.1110 15.75288057 62197
TAUSAT-1                
1 47926U 98067SC  22106.84100321  .00375742  63032-4  12750-2 0  9991
2 47926  51.6241 251.6111 0008808 306.3401  53.6791 15.89285780 62166
TSURU                   
1 47927U 98067SD  22107.56344500  .00106801  00000+0  81791-3 0  9992
2 47927  51.6350 257.2831 0003697 295.8907  64.1710 15.71287307 62169
MAYA-2                  
1 47929U 98067SF  22107.49839090  .00104966  00000+0  80897-3 0  9995
2 47929  51.6349 257.5980 0003616 297.0541  63.0087 15.71144247 62111
HIROGARI (OPUSAT-II)    
1 47930U 98067SG  22104.40989677  .03524807  11894-4  16214-2 0  9994
2 47930  51.6157 260.0446 0013462 303.1008  56.8718 16.20863404 61841
GUARANISAT-1            
1 47931U 98067SH  22107.55040070  .00106016  00000+0  80955-3 0  9990
2 47931  51.6367 257.2134 0003618 297.2194  62.8435 15.71359858 62165
SMOG-1                  
1 47964U 21022AJ  22107.45784812  .00006730  00000+0  42716-3 0  9996
2 47964  97.5365   9.1544 0018539 351.7825   8.3097 15.09068712 57689
MMSATS-1                
1 47976U 98067SJ  22107.63112912  .00024859  00000+0  35609-3 0  9993
2 47976  51.6408 269.7190 0002448 163.7977 196.3091 15.56020696 60781
BCCSAT-1                
1 48041U 21022AK  22107.47749180  .00006706  00000+0  43490-3 0  9997
2 48041  97.5364   8.8651 0015047 349.8385  10.2537 15.08323626 57644
RAMSAT                  
1 48850U 98067SL  22107.15492691  .00055828  00000+0  62807-3 0  9997
2 48850  51.6387 268.7997 0004118 223.2952 136.7719 15.62017042 47726
BD-28                   
1 48867U 98067SN  22107.43732329  .00068064  00000+0  71223-3 0  9999
2 48867  51.6357 266.1640 0004543 255.7809 104.2681 15.63788489 46538
MIR-SAT 1               
1 48868U 98067SP  22107.48962985  .03240200  11823-4  18275-2 0  9992
2 48868  51.6173 252.1038 0014476 307.0170  52.9522 16.18205806 46754
1998-067SR              
1 49272U 98067SR  22106.88911364  .00058257  00000+0  68287-3 0  9995
2 49272  51.6376 273.7537 0001191  94.4096 265.7033 15.60941454 30022
1998-067SS              
1 49273U 98067SS  22107.14953447  .00089937  00000+0  91514-3 0  9992
2 49273  51.6369 270.9937 0000443 309.4353  50.6602 15.64390545 30084
1998-067ST              
1 49274U 98067ST  22107.54294368  .00083627  00000+0  85640-3 0  9990
2 49274  51.6366 269.1187 0000668 320.8410  39.2536 15.64259609 30140
CUAVA-1                 
1 49275U 98067SU  22107.45257280  .00078922  00000+0  85797-3 0  9998
2 49275  51.6388 269.9458 0001225 183.9853 205.8758 15.62761630 30072
